{
    "CCSDS_OMM_VERS": "3.0",
    "COMMENT": "GENERATED VIA SPACE-TRACK.ORG API",
    "CREATION_DATE": "2025-11-24T07:26:19",
    "ORIGINATOR": "18 SPCS",
    "OBJECT_NAME": "NAVSTAR 80 (USA 309)",
    "OBJECT_ID": "2020-078A",
    "CENTER_NAME": "EARTH",
    "REF_FRAME": "TEME",
    "TIME_SYSTEM": "UTC",
    "MEAN_ELEMENT_THEORY": "SGP4",
    "EPOCH": "2025-11-12T03:01:29.190720",
    "MEAN_MOTION": "2.00567032",
    "ECCENTRICITY": "0.00639120",
    "INCLINATION": "54.0224",
    "RA_OF_ASC_NODE": "219.5836",
    "ARG_OF_PERICENTER": "203.4987",
    "MEAN_ANOMALY": "326.7753",
    "EPHEMERIS_TYPE": "0",
    "CLASSIFICATION_TYPE": "U",
    "NORAD_CAT_ID": "46826",
    "ELEMENT_SET_NO": "999",
    "REV_AT_EPOCH": "3715",
    "BSTAR": "0.00000000000000",
    "MEAN_MOTION_DOT": "-0.00000034",
    "MEAN_MOTION_DDOT": "0.0000000000000",
    "SEMIMAJOR_AXIS": "26560.045",
    "PERIOD": "717.964",
    "APOAPSIS": "20351.661",
    "PERIAPSIS": "20012.160",
    "OBJECT_TYPE": "PAYLOAD",
    "RCS_SIZE": "LARGE",
    "COUNTRY_CODE": "US",
    "LAUNCH_DATE": "2020-11-05",
    "SITE": "AFETR",
    "DECAY_DATE": null,
    "FILE": "4897050",
    "GP_ID": "303368972",
    "TLE_LINE0": "0 NAVSTAR 80 (USA 309)",
    "TLE_LINE1": "1 46826U 20078A   25316.12603230 -.00000034  00000-0  00000+0 0  9994",
    "TLE_LINE2": "2 46826  54.0224 219.5836 0063912 203.4987 326.7753  2.00567032 37157"
}